OBJECT_NAME,OBJECT_ID,EPOCH,MEAN_MOTION,ECCENTRICITY,INCLINATION,RA_OF_ASC_NODE,ARG_OF_PERICENTER,MEAN_ANOMALY,EPHEMERIS_TYPE,CLASSIFICATION_TYPE,NORAD_CAT_ID,ELEMENT_SET_NO,REV_AT_EPOCH,BSTAR,MEAN_MOTION_DOT,MEAN_MOTION_DDOT
CHUTIAN-2 A,2025-256A,2026-07-11T17:32:34.334016,14.50229639,.00126036,98.2477,258.4175,254.3349,105.6455,0,U,66409,999,3545,.84156267E-4,.284E-5,0
CHUTIAN-2 B,2025-256B,2026-07-12T17:59:00.763296,14.50220072,.00124905,98.2504,259.5272,254.3266,105.6551,0,U,66410,999,3560,.46074715E-4,.136E-5,0
HULIANWANG DIGUI-96,2025-258A,2026-07-15T04:08:04.515072,13.29327273,.0000875,50.0022,195.2688,249.3892,110.6886,0,U,66412,999,3345,.14697E-4,-.117E-5,0
HULIANWANG DIGUI-97,2025-258B,2026-07-14T23:31:21.140256,13.29326691,.000103,49.9985,196.1828,248.8871,111.1891,0,U,66413,999,3342,.28752E-4,-.111E-5,0
HULIANWANG DIGUI-98,2025-258C,2026-07-15T01:07:47.387136,13.29323229,.000112,50.0020,195.9481,244.7748,115.3008,0,U,66414,999,3343,.39079E-4,-.106E-5,0
HULIANWANG DIGUI-99,2025-258D,2026-07-15T03:56:05.311968,13.29326515,.0000986,50.0022,195.2278,252.4552,107.6212,0,U,66415,999,3344,.10892E-4,-.119E-5,0
HULIANWANG DIGUI-100,2025-258E,2026-07-15T00:55:44.843808,13.29323305,.0001018,50.0026,195.9095,255.1913,104.8847,0,U,66416,999,3344,.33623E-4,-.108E-5,0
HULIANWANG DIGUI-101,2025-258F,2026-07-15T04:19:58.472832,13.29327133,.0000832,49.9974,195.2182,252.2599,107.8183,0,U,66417,999,3346,.91412E-5,-.12E-5,0
HULIANWANG DIGUI-102,2025-258G,2026-07-15T03:44:05.019360,13.29323148,.0000872,49.9989,195.1130,250.1062,109.9716,0,U,66418,999,3345,.1157E-4,-.119E-5,0
HULIANWANG DIGUI-103,2025-258H,2026-07-14T23:55:21.309024,13.29326225,.0000971,49.9981,195.5935,259.9113,100.1649,0,U,66419,999,3343,.21378E-4,-.114E-5,0
HULIANWANG DIGUI-104,2025-258J,2026-07-14T23:43:23.216160,13.29326252,.0000943,50.0002,195.5899,246.9176,113.1596,0,U,66420,999,3342,.11126E-4,-.119E-5,0
STARLINK-35617,2025-259A,2026-07-15T05:22:22.158912,15.27575476,.0001994,42.9985,274.3123,266.0250,94.0373,0,U,66422,999,3899,.25043E-3,.6634E-4,0
STARLINK-35618,2025-259B,2026-07-15T05:14:58.280640,15.27574931,.0001892,43.0004,274.2759,280.1066,79.9572,0,U,66423,999,3899,.32808E-3,.8775E-4,0
STARLINK-35588,2025-259C,2026-07-15T05:11:15.786816,15.27583323,.0001855,43.0012,274.2547,267.8677,92.1963,0,U,66424,999,3899,.34705E-3,.9301E-4,0
STARLINK-35555,2025-259D,2026-07-15T05:05:42.797760,15.27589657,.000124,42.9993,274.2216,213.9790,146.0982,0,U,66425,999,3899,.35109E-3,.9414E-4,0
STARLINK-35589,2025-259E,2026-07-14T13:20:27.231072,15.27576318,.000078,43.0019,277.8928,295.1024,64.9747,0,U,66426,999,3889,.35765E-3,.9591E-4,0
STARLINK-35611,2025-259F,2026-07-15T04:56:27.574944,15.27595910,.0002435,42.9954,274.1658,159.0978,200.9973,0,U,66427,999,3899,.47082E-3,.12723E-3,0
STARLINK-35610,2025-259G,2026-07-15T04:50:54.595392,15.27579859,.0001436,43.0027,274.1435,272.2997,87.7690,0,U,66428,999,3899,.3622E-3,.9718E-4,0
STARLINK-35533,2025-259H,2026-07-14T13:03:47.515680,15.27578535,.0001327,43.0003,277.8008,222.1364,137.9386,0,U,66429,999,3889,.21688E-3,.571E-4,0
STARLINK-35470,2025-259J,2026-07-14T12:58:14.209536,15.27574075,.00020053,43.0058,277.7760,278.7713,81.2911,0,U,66430,999,3889,.16018264E-3,.4147E-4,0
STARLINK-35439,2025-259K,2026-07-15T04:36:06.431040,15.27579314,.0001713,43.0000,274.0637,280.0769,79.9889,0,U,66431,999,3899,.24667E-3,.6532E-4,0
STARLINK-35446,2025-259L,2026-07-14T12:52:41.260224,15.27583631,.0001724,43.0022,277.7466,273.9985,86.0670,0,U,66432,999,3889,.33912E-3,.9082E-4,0
STARLINK-35457,2025-259M,2026-07-14T12:48:59.353056,15.27568321,.00032957,43.0070,277.7269,282.4522,77.5961,0,U,66433,999,3889,.12182456E-3,.309E-4,0
STARLINK-35389,2025-259N,2026-07-14T12:47:08.297088,15.27570022,.00028916,43.0055,277.7147,283.4412,76.6118,0,U,66434,999,3889,.14364375E-3,.3691E-4,0
STARLINK-35502,2025-259P,2026-07-14T12:37:53.141664,15.27570388,.00016504,42.9995,277.6643,268.3251,91.7412,0,U,66435,999,3889,.20014855E-4,.288E-5,0
STARLINK-35501,2025-259Q,2026-07-14T12:45:17.375040,15.27575352,.00022029,43.0030,277.7027,281.2813,78.7791,0,U,66436,999,3889,.42061159E-3,.11328E-3,0
STARLINK-35474,2025-259R,2026-07-15T05:16:48.796608,15.27584613,.0001328,43.0006,274.2783,253.8530,106.2175,0,U,66437,999,3899,.38865E-3,.10449E-3,0
STARLINK-34681,2025-259S,2026-07-15T05:07:33.617856,15.27577010,.000357,43.0006,274.2255,275.2180,84.8264,0,U,66438,999,3888,.36155E-3,.97E-4,0
STARLINK-35327,2025-259T,2026-07-14T12:36:02.171232,15.27528623,.0002025,42.9999,277.6532,266.9606,93.1014,0,U,66439,999,3889,-.38065299E-3,-.10706E-3,0
STARLINK-35405,2025-259U,2026-07-15T05:00:09.639360,15.27578722,.000214,43.0013,274.1872,289.4324,70.6296,0,U,66440,999,3899,.29818E-3,.7952E-4,0
STARLINK-35426,2025-259V,2026-07-15T04:49:03.415872,15.27583203,.000136,42.9991,274.1234,238.4291,121.6428,0,U,66441,999,3899,.42078E-3,.11336E-3,0
STARLINK-34724,2025-259W,2026-07-14T06:15:55.064736,15.27582663,.0001294,42.9991,279.9752,263.7916,96.2789,0,U,66442,999,3884,.27856955E-3,.7412E-4,0
STARLINK-35219,2025-259X,2026-07-14T12:26:59.089344,15.27580052,.00015288,43.0002,278.4697,273.2295,86.8382,0,U,66443,999,3877,-.19644548E-3,-.5664E-4,0
STARLINK-35360,2025-259Y,2026-07-14T12:41:36.500352,15.27577476,.00004693,42.9969,277.6778,255.6766,104.4034,0,U,66444,999,3889,.27430318E-3,.7293E-4,0
STARLINK-34698,2025-259Z,2026-07-14T12:21:26.306784,15.27587481,.00034037,43.0039,278.4407,278.4989,81.5477,0,U,66445,999,3877,.36268297E-3,.9734E-4,0
STARLINK-34986,2025-259AA,2026-07-14T13:46:20.801568,15.27573463,.00020024,42.9992,278.0250,279.6182,80.4444,0,U,66446,999,3889,.17262723E-3,.449E-4,0
STARLINK-34851,2025-259AB,2026-07-14T12:30:41.622048,15.27580263,.00009124,42.9963,278.4842,264.2256,95.8492,0,U,66447,999,3877,.181507E-3,.4736E-4,0
STARLINK-35355,2025-259AC,2026-07-14T12:23:19.061376,15.27545795,.00018861,42.9957,278.4434,271.8042,88.2593,0,U,66448,999,3888,.84397944E-4,.2059E-4,0
STARLINK-34720,2025-259AD,2026-07-14T12:15:53.737632,15.27590596,.00019649,43.0004,278.4107,285.4509,74.6126,0,U,66449,999,3877,.3165788E-3,.8462E-4,0
STARLINK-35334,2025-259AE,2026-07-15T05:26:03.812064,15.27581388,.0001765,42.9993,274.3194,268.7647,91.3003,0,U,66450,999,3899,.31602E-3,.8444E-4,0
VIASAT-3 F2,2025-261A,2026-07-14T07:54:32.066784,1.00270448,.00007495,0.0014,307.9780,275.9845,107.8920,0,U,66454,999,306,0,-.24E-5,0
STARLINK-35643,2025-262A,2026-07-14T17:47:59.826624,15.27584243,.00016448,43.0023,298.9772,277.3062,82.7602,0,U,66456,999,3833,.3920301E-3,.10543E-3,0
STARLINK-35466,2025-262B,2026-07-14T06:35:56.804928,15.27577455,.0001571,42.9970,301.4850,210.4700,149.6061,0,U,66457,999,3826,.28333574E-3,.7542E-4,0
STARLINK-35684,2025-262C,2026-07-14T14:30:25.817472,15.27582403,.00021403,43.0043,299.6671,273.4276,86.6331,0,U,66458,999,3831,.41261443E-3,.1111E-3,0
STARLINK-35449,2025-262D,2026-07-14T14:17:29.023584,15.27589676,.0001311,43.0002,299.5955,281.9178,78.1526,0,U,66459,999,3831,.3844E-3,.10334E-3,0
STARLINK-35424,2025-262E,2026-07-14T07:33:05.674464,15.27590104,.0000873,42.9959,300.9232,166.8159,193.2715,0,U,66460,999,3827,.34623586E-3,.9281E-4,0
STARLINK-35132,2025-262F,2026-07-14T13:46:01.272576,15.27583400,.0001267,43.0006,299.4307,269.1805,90.8902,0,U,66461,999,3831,.23711E-3,.6269E-4,0
STARLINK-35499,2025-262G,2026-07-14T13:33:04.411296,15.27567525,.0001632,43.0027,299.3658,274.3539,85.7126,0,U,66462,999,3831,.30926E-3,.8254E-4,0
STARLINK-35463,2025-262H,2026-07-14T14:13:46.503840,15.27575642,.0001328,43.0017,299.5747,264.3203,95.7497,0,U,66463,999,3831,.20617E-3,.5415E-4,0
STARLINK-35435,2025-262J,2026-07-15T04:00:03.000096,15.27562125,.000183,43.0031,295.8399,265.5800,218.8318,0,U,66464,999,585,.11836E-2,.32433E-3,0
STARLINK-35448,2025-262K,2026-07-14T14:28:34.701024,15.27580568,.0001024,43.0005,299.6503,253.5105,106.5634,0,U,66465,999,3831,.21041834E-3,.5533E-4,0
STARLINK-35388,2025-262L,2026-07-14T15:14:37.632192,15.27591119,.00019244,43.0002,299.0299,271.6904,88.3727,0,U,66466,999,3832,.47045903E-3,.12711E-3,0
STARLINK-35682,2025-262M,2026-07-14T14:52:38.400960,15.27577246,.0000838,42.9984,299.7767,263.8738,96.2018,0,U,66467,999,3831,.3061396E-3,.8171E-4,0
STARLINK-35331,2025-262N,2026-07-14T06:50:45.143808,15.27586809,.00009746,43.0031,301.5650,241.9068,118.1685,0,U,66468,999,3826,.5894576E-3,.15997E-3,0
STARLINK-35451,2025-262P,2026-07-15T04:00:03.000096,15.27566378,.0001723,43.0017,295.9086,264.4823,191.6250,0,U,66469,999,575,.13158E-2,.36107E-3,0
STARLINK-35655,2025-262Q,2026-07-14T14:15:37.970208,15.27598752,.0000916,43.0004,299.5798,263.6123,96.4624,0,U,66470,999,3831,.71069E-3,.19357E-3,0
STARLINK-35569,2025-262R,2026-07-14T13:53:25.637280,15.27579317,.0001091,43.0002,299.4623,265.0231,95.0496,0,U,66471,999,3831,.28842E-3,.7683E-4,0
STARLINK-35567,2025-262S,2026-07-14T15:09:04.461696,15.27581288,.00012277,43.0001,298.9993,267.4624,92.6087,0,U,66472,999,3832,.30416526E-3,.8117E-4,0
STARLINK-35568,2025-262T,2026-07-14T14:47:06.783936,15.27570106,.00032047,43.0048,299.7462,287.4571,72.5931,0,U,66473,999,3831,.40704596E-3,.10953E-3,0
STARLINK-35620,2025-262U,2026-07-14T13:47:52.194624,15.27582091,.0002305,43.0022,299.4329,276.9721,83.0868,0,U,66474,999,3831,.2616E-3,.6944E-4,0
STARLINK-35538,2025-262V,2026-07-14T14:35:58.802208,15.27586602,.00023191,43.0035,299.6866,272.3114,87.7472,0,U,66475,999,3831,.39890337E-3,.10733E-3,0
STARLINK-35372,2025-262W,2026-07-14T14:11:55.778784,15.27566971,.0002179,43.0079,299.5597,277.3420,82.7184,0,U,66476,999,3820,.1338E-3,.342E-4,0
STARLINK-35354,2025-262X,2026-07-14T13:44:10.144032,15.27576533,.000146,43.0018,299.4127,268.5148,91.5537,0,U,66477,999,3831,.12875E-3,.3282E-4,0
STARLINK-35283,2025-262Y,2026-07-14T14:32:16.717056,15.27590944,.00018358,43.0036,299.6659,281.3259,78.7386,0,U,66478,999,3831,.45779115E-3,.12361E-3,0
